[
    {
        "Altitude(m)": 569581.64483497,
        "Argument of Periapsis(deg)": 0.026491964442854003,
        "Eccentricity": 0.0,
        "Inclination(deg)": 53.0,
        "Latitude(deg)": -47.444304323627044,
        "Longitude(deg)": -77.89715034243142,
        "Mean Anomaly(deg)": -66.90632852968969,
        "RAAN(deg)": 79.96057347411207,
        "Satellite Name": "Starlink Shell 1 367",
        "Satellite Number": 367,
        "Semi-Major Axis(m)": 6931778.249405717,
        "Time(s)": 760
    },
    {
        "Altitude(m)": 569463.2275941597,
        "Argument of Periapsis(deg)": 0.02684054292236524,
        "Eccentricity": 0.0,
        "Inclination(deg)": 53.0,
        "Latitude(deg)": -47.1527598477276,
        "Longitude(deg)": -77.12520557064504,
        "Mean Anomaly(deg)": -66.27949732613291,
        "RAAN(deg)": 79.96005470403459,
        "Satellite Name": "Starlink Shell 1 367",
        "Satellite Number": 367,
        "Semi-Major Axis(m)": 6931778.249405717,
        "Time(s)": 770
    },
    {
        "Altitude(m)": 569342.2752188073,
        "Argument of Periapsis(deg)": 0.027189121401876473,
        "Eccentricity": 0.0,
        "Inclination(deg)": 53.0,
        "Latitude(deg)": -46.855487451175414,
        "Longitude(deg)": -76.36217369278265,
        "Mean Anomaly(deg)": -65.6526661225762,
        "RAAN(deg)": 79.95953593395711,
        "Satellite Name": "Starlink Shell 1 367",
        "Satellite Number": 367,
        "Semi-Major Axis(m)": 6931778.249405717,
        "Time(s)": 780
    },
    {
        "Altitude(m)": 569218.8355347596,
        "Argument of Periapsis(deg)": 0.02753769988138771,
        "Eccentricity": 0.0,
        "Inclination(deg)": 53.0,
        "Latitude(deg)": -46.55260698819172,
        "Longitude(deg)": -75.60803244854287,
        "Mean Anomaly(deg)": -65.02583491901956,
        "RAAN(deg)": 79.95901716387965,
        "Satellite Name": "Starlink Shell 1 367",
        "Satellite Number": 367,
        "Semi-Major Axis(m)": 6931778.249405717,
        "Time(s)": 790
    },
    {
        "Altitude(m)": 569092.9573252634,
        "Argument of Periapsis(deg)": 0.02788627836089895,
        "Eccentricity": 0.0,
        "Inclination(deg)": 53.0,
        "Latitude(deg)": -46.24423727938867,
        "Longitude(deg)": -74.8627510225514,
        "Mean Anomaly(deg)": -64.39900371546278,
        "RAAN(deg)": 79.95849839380217,
        "Satellite Name": "Starlink Shell 1 367",
        "Satellite Number": 367,
        "Semi-Major Axis(m)": 6931778.249405717,
        "Time(s)": 800
    },
    {
        "Altitude(m)": 568964.6903096207,
        "Argument of Periapsis(deg)": 0.02823485684041019,
        "Eccentricity": 0.0,
        "Inclination(deg)": 53.0,
        "Latitude(deg)": -45.930496000604464,
        "Longitude(deg)": -74.12629007983853,
        "Mean Anomaly(deg)": -63.77217251190613,
        "RAAN(deg)": 79.9579796237247,
        "Satellite Name": "Starlink Shell 1 367",
        "Satellite Number": 367,
        "Semi-Major Axis(m)": 6931778.249405717,
        "Time(s)": 810
    },
    {
        "Altitude(m)": 568834.0851213856,
        "Argument of Periapsis(deg)": 0.028583435319921423,
        "Eccentricity": 0.0,
        "Inclination(deg)": 53.0,
        "Latitude(deg)": -45.61149958167354,
        "Longitude(deg)": -73.39860179338362,
        "Mean Anomaly(deg)": -63.14534130834937,
        "RAAN(deg)": 79.95746085364723,
        "Satellite Name": "Starlink Shell 1 367",
        "Satellite Number": 367,
        "Semi-Major Axis(m)": 6931778.249405717,
        "Time(s)": 820
    },
    {
        "Altitude(m)": 568701.1932861777,
        "Argument of Periapsis(deg)": 0.028932013799432665,
        "Eccentricity": 0.0,
        "Inclination(deg)": 53.0,
        "Latitude(deg)": -45.28736311480255,
        "Longitude(deg)": -72.67963137455592,
        "Mean Anomaly(deg)": -62.51851010479266,
        "RAAN(deg)": 79.95694208356976,
        "Satellite Name": "Starlink Shell 1 367",
        "Satellite Number": 367,
        "Semi-Major Axis(m)": 6931778.249405717,
        "Time(s)": 830
    },
    {
        "Altitude(m)": 568566.0671990622,
        "Argument of Periapsis(deg)": 0.029280592278943897,
        "Eccentricity": 0.0,
        "Inclination(deg)": 53.0,
        "Latitude(deg)": -44.95820027219215,
        "Longitude(deg)": -71.96931707891359,
        "Mean Anomaly(deg)": -61.891678901235956,
        "RAAN(deg)": 79.95642331349228,
        "Satellite Name": "Starlink Shell 1 367",
        "Satellite Number": 367,
        "Semi-Major Axis(m)": 6931778.249405717,
        "Time(s)": 840
    },
    {
        "Altitude(m)": 568428.7601015581,
        "Argument of Periapsis(deg)": 0.029629170758455132,
        "Eccentricity": 0.0,
        "Inclination(deg)": 53.0,
        "Latitude(deg)": -44.624123232527026,
        "Longitude(deg)": -71.26759019870661,
        "Mean Anomaly(deg)": -61.264847697679244,
        "RAAN(deg)": 79.95590454341482,
        "Satellite Name": "Starlink Shell 1 367",
        "Satellite Number": 367,
        "Semi-Major Axis(m)": 6931778.249405717,
        "Time(s)": 850
    },
    {
        "Altitude(m)": 568289.3260582435,
        "Argument of Periapsis(deg)": 0.02997774923796637,
        "Eccentricity": 0.0,
        "Inclination(deg)": 53.0,
        "Latitude(deg)": -44.28524261593914,
        "Longitude(deg)": -70.57437672175902,
        "Mean Anomaly(deg)": -60.63801649412254,
        "RAAN(deg)": 79.95538577333734,
        "Satellite Name": "Starlink Shell 1 367",
        "Satellite Number": 367,
        "Semi-Major Axis(m)": 6931778.249405717,
        "Time(s)": 860
    },
    {
        "Altitude(m)": 568147.8199330003,
        "Argument of Periapsis(deg)": 0.030326327717477602,
        "Eccentricity": 0.0,
        "Inclination(deg)": 53.0,
        "Latitude(deg)": -43.941667427037046,
        "Longitude(deg)": -69.88959645322686,
        "Mean Anomaly(deg)": -60.01118529056577,
        "RAAN(deg)": 79.95486700325986,
        "Satellite Name": "Starlink Shell 1 367",
        "Satellite Number": 367,
        "Semi-Major Axis(m)": 6931778.249405717,
        "Time(s)": 870
    },
    {
        "Altitude(m)": 568004.2973648662,
        "Argument of Periapsis(deg)": 0.030674906196988847,
        "Eccentricity": 0.0,
        "Inclination(deg)": 53.0,
        "Latitude(deg)": -43.59350500558971,
        "Longitude(deg)": -69.21316464228678,
        "Mean Anomaly(deg)": -59.38435408700907,
        "RAAN(deg)": 79.9543482331824,
        "Satellite Name": "Starlink Shell 1 367",
        "Satellite Number": 367,
        "Semi-Major Axis(m)": 6931778.249405717,
        "Time(s)": 880
    },
    {
        "Altitude(m)": 567858.8147435617,
        "Argument of Periapsis(deg)": 0.031023484676500086,
        "Eccentricity": 0.0,
        "Inclination(deg)": 53.0,
        "Latitude(deg)": -43.240860984446094,
        "Longitude(deg)": -68.54499191064818,
        "Mean Anomaly(deg)": -58.7575228834524,
        "RAAN(deg)": 79.95382946310492,
        "Satellite Name": "Starlink Shell 1 367",
        "Satellite Number": 367,
        "Semi-Major Axis(m)": 6931778.249405717,
        "Time(s)": 890
    },
    {
        "Altitude(m)": 567711.4291846558,
        "Argument of Periapsis(deg)": 0.03137206315601132,
        "Eccentricity": 0.0,
        "Inclination(deg)": 53.0,
        "Latitude(deg)": -42.88383925427551,
        "Longitude(deg)": -67.88498416336705,
        "Mean Anomaly(deg)": -58.1306916798956,
        "RAAN(deg)": 79.95331069302745,
        "Satellite Name": "Starlink Shell 1 367",
        "Satellite Number": 367,
        "Semi-Major Axis(m)": 6931778.249405717,
        "Time(s)": 900
    },
    {
        "Altitude(m)": 567562.1985043766,
        "Argument of Periapsis(deg)": 0.03172064163552255,
        "Eccentricity": 0.0,
        "Inclination(deg)": 53.0,
        "Latitude(deg)": -42.52254193471579,
        "Longitude(deg)": -67.23304399450147,
        "Mean Anomaly(deg)": -57.50386047633895,
        "RAAN(deg)": 79.95279192294998,
        "Satellite Name": "Starlink Shell 1 367",
        "Satellite Number": 367,
        "Semi-Major Axis(m)": 6931778.249405717,
        "Time(s)": 910
    },
    {
        "Altitude(m)": 567411.1811941366,
        "Argument of Periapsis(deg)": 0.0320692201150338,
        "Eccentricity": 0.0,
        "Inclination(deg)": 53.0,
        "Latitude(deg)": -42.15706935151949,
        "Longitude(deg)": -66.58907056166235,
        "Mean Anomaly(deg)": -56.87702927278223,
        "RAAN(deg)": 79.95227315287251,
        "Satellite Name": "Starlink Shell 1 367",
        "Satellite Number": 367,
        "Semi-Major Axis(m)": 6931778.249405717,
        "Time(s)": 920
    },
    {
        "Altitude(m)": 567258.4363947088,
        "Argument of Periapsis(deg)": 0.032417798594545036,
        "Eccentricity": 0.0,
        "Inclination(deg)": 53.0,
        "Latitude(deg)": -41.78752001930059,
        "Longitude(deg)": -65.95295944227823,
        "Mean Anomaly(deg)": -56.25019806922552,
        "RAAN(deg)": 79.95175438279503,
        "Satellite Name": "Starlink Shell 1 367",
        "Satellite Number": 367,
        "Semi-Major Axis(m)": 6931778.249405717,
        "Time(s)": 930
    },
    {
        "Altitude(m)": 567104.0238701158,
        "Argument of Periapsis(deg)": 0.03276637707405627,
        "Eccentricity": 0.0,
        "Inclination(deg)": 53.0,
        "Latitude(deg)": -41.41399062949087,
        "Longitude(deg)": -65.32460398449976,
        "Mean Anomaly(deg)": -55.623366865668814,
        "RAAN(deg)": 79.95123561271755,
        "Satellite Name": "Starlink Shell 1 367",
        "Satellite Number": 367,
        "Semi-Major Axis(m)": 6931778.249405717,
        "Time(s)": 940
    }
]